TEVEL2-1                
1 63217U 25052H   26093.68283306  .00031726  00000+0  10448-2 0  9996
2 63217  97.3960 349.7254 0004237  56.9591 303.2057 15.31416357 58683
TEVEL2-3                
1 63218U 25052J   26094.20250110  .00033317  00000+0  10942-2 0  9990
2 63218  97.3960 350.2573 0004166  56.4803 303.6836 15.31493534 58767
TEVEL2-2                
1 63219U 25052K   26094.14082454  .00035474  00000+0  11660-2 0  9992
2 63219  97.3961 350.1827 0004152  56.8786 303.2854 15.31454378 58757
TEVEL2-9                
1 63237U 25052AD  26094.22372042  .00030644  00000+0  10645-2 0  9992
2 63237  97.4028 349.7885 0007963  55.6709 304.5284 15.29669871 58715
TEVEL2-7                
1 63238U 25052AE  26094.25181011  .00031843  00000+0  11140-2 0  9993
2 63238  97.4015 349.7609 0007965  56.0671 304.1325 15.29432762 58710
TEVEL2-8                
1 63239U 25052AF  26094.25918907  .00030895  00000+0  10818-2 0  9993
2 63239  97.4023 349.7483 0008024  56.9974 303.2036 15.29410247 58715
HADES-ICM               
1 63492U 25052BN  26094.14646184  .00373306  00000+0  34399-2 0  9994
2 63492  97.3885 355.6735 0006436  76.5189 283.6788 15.66453121 59117
INNOSAT 16 (RS92S7)     
1 64878U 25155C   26094.25159713  .00012979  00000+0  52765-3 0  9990
2 64878  97.4509  61.6925 0012653  87.3337 272.9349 15.24603274 69405
GEOSCAN 6 (RS92S6)      
1 64879U 25155D   26094.24992805  .00020724  00000+0  74328-3 0  9993
2 64879  97.4507  62.6265 0010154  82.7043 277.5351 15.28689037 69464
GEOSCAN 1 (RS92S1)      
1 64880U 25155E   26094.21280319  .00022386  00000+0  79103-3 0  9994
2 64880  97.4503  62.6798 0010111  83.1417 277.0973 15.29160919 69465
239ALFEROV (RS61S)      
1 64881U 25155F   26094.21149171  .00027279  00000+0  91284-3 0  9995
2 64881  97.4507  63.0167 0009816  82.9630 277.2727 15.30893553 69489
GEOSCAN 2 (RS92S2)      
1 64890U 25155Q   26094.22015032  .00021566  00000+0  75546-3 0  9990
2 64890  97.4502  62.8090 0009288  73.1120 287.1138 15.29459362 69474
GEOSCAN 5 (RS92S5)      
1 64891U 25155R   26094.21611881  .00028254  00000+0  93589-3 0  9992
2 64891  97.4499  63.1299 0008725  88.2435 271.9805 15.31225186 69498
GEOSCAN 4 (RS92S4)      
1 64892U 25155S   26094.20670228  .00027756  00000+0  91626-3 0  9998
2 64892  97.4503  63.1503 0008743  88.7984 271.4259 15.31338577 69494
GEOSCAN 3 (RS92S3)      
1 64893U 25155T   26094.22639570  .00033062  00000+0  10398-2 0  9999
2 64893  97.4492  63.4131 0008599  89.9257 270.2970 15.32858168 69511
INNOSAT 3 (RS92S0)      
1 64894U 25155U   26094.23401943  .00063184  00000+0  16349-2 0  9992
2 64894  97.4459  64.2724 0008462  91.5226 268.6989 15.38818630 69579
