[{"OBJECT_NAME":"TEVEL2-1","OBJECT_ID":"2025-052H","EPOCH":"2026-04-03T16:23:16.776384","MEAN_MOTION":15.31416357,"ECCENTRICITY":0.00042378,"INCLINATION":97.396,"RA_OF_ASC_NODE":349.7254,"ARG_OF_PERICENTER":56.9591,"MEAN_ANOMALY":303.2057,"EPHEMERIS_TYPE":0,"CLASSIFICATION_TYPE":"U","NORAD_CAT_ID":63217,"ELEMENT_SET_NO":999,"REV_AT_EPOCH":5868,"BSTAR":0.0010448018,"MEAN_MOTION_DOT":0.00031726,"MEAN_MOTION_DDOT":0},{"OBJECT_NAME":"TEVEL2-3","OBJECT_ID":"2025-052J","EPOCH":"2026-04-04T04:51:36.095040","MEAN_MOTION":15.31493534,"ECCENTRICITY":0.0004166,"INCLINATION":97.396,"RA_OF_ASC_NODE":350.2573,"ARG_OF_PERICENTER":56.4803,"MEAN_ANOMALY":303.6836,"EPHEMERIS_TYPE":0,"CLASSIFICATION_TYPE":"U","NORAD_CAT_ID":63218,"ELEMENT_SET_NO":999,"REV_AT_EPOCH":5876,"BSTAR":0.00109422,"MEAN_MOTION_DOT":0.00033317,"MEAN_MOTION_DDOT":0},{"OBJECT_NAME":"TEVEL2-2","OBJECT_ID":"2025-052K","EPOCH":"2026-04-04T03:22:47.240256","MEAN_MOTION":15.31454378,"ECCENTRICITY":0.00041525,"INCLINATION":97.3961,"RA_OF_ASC_NODE":350.1827,"ARG_OF_PERICENTER":56.8786,"MEAN_ANOMALY":303.2854,"EPHEMERIS_TYPE":0,"CLASSIFICATION_TYPE":"U","NORAD_CAT_ID":63219,"ELEMENT_SET_NO":999,"REV_AT_EPOCH":5875,"BSTAR":0.0011659881,"MEAN_MOTION_DOT":0.00035474,"MEAN_MOTION_DDOT":0},{"OBJECT_NAME":"TEVEL2-9","OBJECT_ID":"2025-052AD","EPOCH":"2026-04-04T05:22:09.444288","MEAN_MOTION":15.29669871,"ECCENTRICITY":0.00079634,"INCLINATION":97.4028,"RA_OF_ASC_NODE":349.7885,"ARG_OF_PERICENTER":55.6709,"MEAN_ANOMALY":304.5284,"EPHEMERIS_TYPE":0,"CLASSIFICATION_TYPE":"U","NORAD_CAT_ID":63237,"ELEMENT_SET_NO":999,"REV_AT_EPOCH":5871,"BSTAR":0.0010645324,"MEAN_MOTION_DOT":0.00030644,"MEAN_MOTION_DDOT":0},{"OBJECT_NAME":"TEVEL2-7","OBJECT_ID":"2025-052AE","EPOCH":"2026-04-04T06:02:36.393504","MEAN_MOTION":15.29432762,"ECCENTRICITY":0.00079654,"INCLINATION":97.4015,"RA_OF_ASC_NODE":349.7609,"ARG_OF_PERICENTER":56.0671,"MEAN_ANOMALY":304.1325,"EPHEMERIS_TYPE":0,"CLASSIFICATION_TYPE":"U","NORAD_CAT_ID":63238,"ELEMENT_SET_NO":999,"REV_AT_EPOCH":5871,"BSTAR":0.0011139869,"MEAN_MOTION_DOT":0.00031843,"MEAN_MOTION_DDOT":0},{"OBJECT_NAME":"TEVEL2-8","OBJECT_ID":"2025-052AF","EPOCH":"2026-04-04T06:13:13.935648","MEAN_MOTION":15.29410247,"ECCENTRICITY":0.00080241,"INCLINATION":97.4023,"RA_OF_ASC_NODE":349.7483,"ARG_OF_PERICENTER":56.9974,"MEAN_ANOMALY":303.2036,"EPHEMERIS_TYPE":0,"CLASSIFICATION_TYPE":"U","NORAD_CAT_ID":63239,"ELEMENT_SET_NO":999,"REV_AT_EPOCH":5871,"BSTAR":0.0010817588,"MEAN_MOTION_DOT":0.00030895,"MEAN_MOTION_DDOT":0},{"OBJECT_NAME":"HADES-ICM","OBJECT_ID":"2025-052BN","EPOCH":"2026-04-04T03:30:54.302976","MEAN_MOTION":15.66453121,"ECCENTRICITY":0.00064363,"INCLINATION":97.3885,"RA_OF_ASC_NODE":355.6735,"ARG_OF_PERICENTER":76.5189,"MEAN_ANOMALY":283.6788,"EPHEMERIS_TYPE":0,"CLASSIFICATION_TYPE":"U","NORAD_CAT_ID":63492,"ELEMENT_SET_NO":999,"REV_AT_EPOCH":5911,"BSTAR":0.0034398501,"MEAN_MOTION_DOT":0.00373306,"MEAN_MOTION_DDOT":0},{"OBJECT_NAME":"INNOSAT 16 (RS92S7)","OBJECT_ID":"2025-155C","EPOCH":"2026-04-04T06:02:17.992032","MEAN_MOTION":15.24603274,"ECCENTRICITY":0.00126539,"INCLINATION":97.4509,"RA_OF_ASC_NODE":61.6925,"ARG_OF_PERICENTER":87.3337,"MEAN_ANOMALY":272.9349,"EPHEMERIS_TYPE":0,"CLASSIFICATION_TYPE":"U","NORAD_CAT_ID":64878,"ELEMENT_SET_NO":999,"REV_AT_EPOCH":6940,"BSTAR":0.00052765241,"MEAN_MOTION_DOT":0.00012979,"MEAN_MOTION_DDOT":0},{"OBJECT_NAME":"GEOSCAN 6 (RS92S6)","OBJECT_ID":"2025-155D","EPOCH":"2026-04-04T05:59:53.783520","MEAN_MOTION":15.28689037,"ECCENTRICITY":0.00101549,"INCLINATION":97.4507,"RA_OF_ASC_NODE":62.6265,"ARG_OF_PERICENTER":82.7043,"MEAN_ANOMALY":277.5351,"EPHEMERIS_TYPE":0,"CLASSIFICATION_TYPE":"U","NORAD_CAT_ID":64879,"ELEMENT_SET_NO":999,"REV_AT_EPOCH":6946,"BSTAR":0.00074328235,"MEAN_MOTION_DOT":0.00020724,"MEAN_MOTION_DDOT":0},{"OBJECT_NAME":"GEOSCAN 1 (RS92S1)","OBJECT_ID":"2025-155E","EPOCH":"2026-04-04T05:06:26.195616","MEAN_MOTION":15.29160919,"ECCENTRICITY":0.00101116,"INCLINATION":97.4503,"RA_OF_ASC_NODE":62.6798,"ARG_OF_PERICENTER":83.1417,"MEAN_ANOMALY":277.0973,"EPHEMERIS_TYPE":0,"CLASSIFICATION_TYPE":"U","NORAD_CAT_ID":64880,"ELEMENT_SET_NO":999,"REV_AT_EPOCH":6946,"BSTAR":0.00079103011,"MEAN_MOTION_DOT":0.00022386,"MEAN_MOTION_DDOT":0},{"OBJECT_NAME":"239ALFEROV (RS61S)","OBJECT_ID":"2025-155F","EPOCH":"2026-04-04T05:04:32.883744","MEAN_MOTION":15.30893553,"ECCENTRICITY":0.00098169,"INCLINATION":97.4507,"RA_OF_ASC_NODE":63.0167,"ARG_OF_PERICENTER":82.963,"MEAN_ANOMALY":277.2727,"EPHEMERIS_TYPE":0,"CLASSIFICATION_TYPE":"U","NORAD_CAT_ID":64881,"ELEMENT_SET_NO":999,"REV_AT_EPOCH":6948,"BSTAR":0.00091283921,"MEAN_MOTION_DOT":0.00027279,"MEAN_MOTION_DDOT":0},{"OBJECT_NAME":"GEOSCAN 2 (RS92S2)","OBJECT_ID":"2025-155Q","EPOCH":"2026-04-04T05:17:00.987648","MEAN_MOTION":15.29459362,"ECCENTRICITY":0.00092884,"INCLINATION":97.4502,"RA_OF_ASC_NODE":62.809,"ARG_OF_PERICENTER":73.112,"MEAN_ANOMALY":287.1138,"EPHEMERIS_TYPE":0,"CLASSIFICATION_TYPE":"U","NORAD_CAT_ID":64890,"ELEMENT_SET_NO":999,"REV_AT_EPOCH":6947,"BSTAR":0.00075545514,"MEAN_MOTION_DOT":0.00021566,"MEAN_MOTION_DDOT":0},{"OBJECT_NAME":"GEOSCAN 5 (RS92S5)","OBJECT_ID":"2025-155R","EPOCH":"2026-04-04T05:11:12.665184","MEAN_MOTION":15.31225186,"ECCENTRICITY":0.0008725,"INCLINATION":97.4499,"RA_OF_ASC_NODE":63.1299,"ARG_OF_PERICENTER":88.2435,"MEAN_ANOMALY":271.9805,"EPHEMERIS_TYPE":0,"CLASSIFICATION_TYPE":"U","NORAD_CAT_ID":64891,"ELEMENT_SET_NO":999,"REV_AT_EPOCH":6949,"BSTAR":0.0009358924,"MEAN_MOTION_DOT":0.00028254,"MEAN_MOTION_DDOT":0},{"OBJECT_NAME":"GEOSCAN 4 (RS92S4)","OBJECT_ID":"2025-155S","EPOCH":"2026-04-04T04:57:39.076992","MEAN_MOTION":15.31338577,"ECCENTRICITY":0.00087438,"INCLINATION":97.4503,"RA_OF_ASC_NODE":63.1503,"ARG_OF_PERICENTER":88.7984,"MEAN_ANOMALY":271.4259,"EPHEMERIS_TYPE":0,"CLASSIFICATION_TYPE":"U","NORAD_CAT_ID":64892,"ELEMENT_SET_NO":999,"REV_AT_EPOCH":6949,"BSTAR":0.00091626306,"MEAN_MOTION_DOT":0.00027756,"MEAN_MOTION_DDOT":0},{"OBJECT_NAME":"GEOSCAN 3 (RS92S3)","OBJECT_ID":"2025-155T","EPOCH":"2026-04-04T05:26:00.588480","MEAN_MOTION":15.32858168,"ECCENTRICITY":0.00085993,"INCLINATION":97.4492,"RA_OF_ASC_NODE":63.4131,"ARG_OF_PERICENTER":89.9257,"MEAN_ANOMALY":270.297,"EPHEMERIS_TYPE":0,"CLASSIFICATION_TYPE":"U","NORAD_CAT_ID":64893,"ELEMENT_SET_NO":999,"REV_AT_EPOCH":6951,"BSTAR":0.0010398375,"MEAN_MOTION_DOT":0.00033062,"MEAN_MOTION_DDOT":0},{"OBJECT_NAME":"INNOSAT 3 (RS92S0)","OBJECT_ID":"2025-155U","EPOCH":"2026-04-04T05:36:59.278752","MEAN_MOTION":15.3881863,"ECCENTRICITY":0.00084628,"INCLINATION":97.4459,"RA_OF_ASC_NODE":64.2724,"ARG_OF_PERICENTER":91.5226,"MEAN_ANOMALY":268.6989,"EPHEMERIS_TYPE":0,"CLASSIFICATION_TYPE":"U","NORAD_CAT_ID":64894,"ELEMENT_SET_NO":999,"REV_AT_EPOCH":6957,"BSTAR":0.0016348842,"MEAN_MOTION_DOT":0.00063184,"MEAN_MOTION_DDOT":0}]
